ACS3                    
1 59588U 24077B   24179.78194057  .00000061  00000+0  10622-3 0  9999
2 59588  97.4057 245.5014 0021449  67.6775 292.6647 13.67688223  8851
